[{"OBJECT_NAME":"STARLINK-36424","OBJECT_ID":"2026-005R","EPOCH":"2026-03-09T18:54:13.361760","MEAN_MOTION":15.28420197,"ECCENTRICITY":0.00029627,"INCLINATION":43.0032,"RA_OF_ASC_NODE":237.2444,"ARG_OF_PERICENTER":280.8187,"MEAN_ANOMALY":79.2331,"EPHEMERIS_TYPE":0,"CLASSIFICATION_TYPE":"U","NORAD_CAT_ID":67419,"ELEMENT_SET_NO":999,"REV_AT_EPOCH":871,"BSTAR":0.0011932429,"MEAN_MOTION_DOT":0.00033581,"MEAN_MOTION_DDOT":0},{"OBJECT_NAME":"ELECTRON KICK STAGE R\/B","OBJECT_ID":"2024-047B","EPOCH":"2026-03-09T21:11:54.433824","MEAN_MOTION":15.27307897,"ECCENTRICITY":0.00092426,"INCLINATION":97.6338,"RA_OF_ASC_NODE":46.9382,"ARG_OF_PERICENTER":20.6031,"MEAN_ANOMALY":339.5579,"EPHEMERIS_TYPE":0,"CLASSIFICATION_TYPE":"U","NORAD_CAT_ID":59225,"ELEMENT_SET_NO":999,"REV_AT_EPOCH":10999,"BSTAR":0.00091229405,"MEAN_MOTION_DOT":0.00024409,"MEAN_MOTION_DDOT":0}]
